{"type":"FeatureCollection","features":[{"type":"Feature","properties":{"state":"OR","relation_id":406017,"ref":"US 20"},"geometry":{"type":"MultiLineString","coordinates":[[[-116.983794,43.876954],[-117.000481,43.876888],[-117.006233,43.884166],[-117.006156,43.988921]],[[-121.24376,44.055802],[-121.215976,44.057389],[-121.155402,44.039087],[-121.137675,44.025687],[-121.106536,43.987094],[-121.030115,43.944606],[-121.01567,43.930886],[-121.004772,43.911132],[-120.978742,43.895883],[-120.917254,43.878611],[-120.874917,43.871775],[-120.806098,43.871177],[-120.488377,43.782139],[-120.255402,43.685982],[-120.194131,43.645159],[-120.178169,43.622683],[-120.167509,43.613916],[-120.126044,43.590233],[-120.10905,43.58728],[-120.042563,43.590901],[-120.020966,43.586596],[-119.968277,43.590847],[-119.953664,43.580798],[-119.9065,43.573492],[-119.887639,43.566069],[-119.84821,43.535953],[-119.814371,43.523227],[-119.767025,43.537376],[-119.493708,43.542322],[-119.328354,43.53372],[-119.285515,43.527544],[-119.269947,43.521049],[-119.248694,43.524036],[-119.180716,43.51235],[-119.120892,43.511876],[-119.101054,43.523227],[-119.082546,43.528013],[-119.080582,43.534025],[-119.085432,43.549222],[-119.083041,43.561645],[-119.070158,43.579612],[-119.061989,43.585611],[-119.054455,43.586047],[-119.053259,43.595777],[-119.02388,43.613443],[-118.663713,43.613652],[-118.654615,43.618043],[-118.624059,43.646392],[-118.60935,43.648566],[-118.601174,43.653969],[-118.601217,43.659371],[-118.594907,43.66573],[-118.576314,43.67117],[-118.522584,43.700846],[-118.513754,43.70968],[-118.506963,43.72746],[-118.487372,43.750854],[-118.444028,43.754752],[-118.410489,43.751777],[-118.382401,43.773124],[-118.313039,43.789863],[-118.298823,43.788779],[-118.282441,43.782644],[-118.272441,43.786416],[-118.261906,43.783504],[-118.244278,43.785657],[-118.23385,43.781893],[-118.211652,43.76581],[-118.192147,43.767925],[-118.18204,43.775448],[-118.150594,43.762052],[-118.122795,43.771287],[-118.106252,43.758201],[-118.093699,43.754497],[-118.078434,43.744516],[-118.046737,43.76829],[-118.031785,43.764541],[-118.02141,43.784016],[-118.009007,43.78627],[-118.003782,43.794743],[-117.987378,43.795347],[-117.978505,43.785139],[-117.973398,43.783885],[-117.964289,43.795549],[-117.947145,43.791553],[-117.934131,43.802541],[-117.909626,43.800001],[-117.901697,43.8033],[-117.885261,43.795107],[-117.867762,43.797756],[-117.862044,43.791095],[-117.850864,43.790306],[-117.822122,43.778307],[-117.805009,43.775232],[-117.788723,43.778098],[-117.785944,43.773938],[-117.791823,43.766369],[-117.788583,43.763533],[-117.77985,43.763355],[-117.768617,43.769127],[-117.759369,43.767609],[-117.753393,43.776309],[-117.74702,43.778796],[-117.734488,43.775619],[-117.732836,43.783304],[-117.725712,43.785992],[-117.711336,43.785682],[-117.700253,43.79091],[-117.689996,43.788385],[-117.681767,43.798004],[-117.642746,43.823839],[-117.604423,43.855869],[-117.575476,43.865268],[-117.541326,43.881834],[-117.530598,43.873413],[-117.515202,43.877929],[-117.504119,43.885136],[-117.458446,43.888902],[-117.43178,43.901624],[-117.421051,43.912786],[-117.371874,43.939373],[-117.312632,43.936664],[-117.251684,43.981737]],[[-117.249779,43.981939],[-117.251124,43.981948]],[[-117.23077,43.983289],[-117.221608,43.985684],[-117.207131,43.981801],[-117.11315,43.981496],[-117.088149,43.988722],[-117.006293,43.988997]],[[-123.382249,44.540775],[-123.351947,44.540882],[-123.377947,44.54033],[-123.395337,44.543844],[-123.413069,44.55657],[-123.422359,44.57944],[-123.429943,44.587749],[-123.468601,44.61115],[-123.542541,44.590104],[-123.555334,44.600902],[-123.575408,44.599787],[-123.595911,44.593828],[-123.604001,44.600974],[-123.623945,44.604714],[-123.63153,44.613849],[-123.645971,44.620302],[-123.705549,44.619245],[-123.721896,44.622129],[-123.734613,44.617278],[-123.748627,44.628431],[-123.764947,44.627889],[-123.779046,44.632502],[-123.784102,44.637834],[-123.797228,44.636485],[-123.826813,44.650953],[-123.84175,44.651721],[-123.849163,44.660561],[-123.850851,44.674316],[-123.858897,44.679102],[-123.8893,44.675507],[-123.896721,44.670174],[-123.900222,44.662954],[-123.916308,44.656723],[-123.921492,44.644394],[-123.942372,44.638664],[-123.9561,44.629068],[-123.97871,44.624449],[-123.992239,44.631253],[-124.00287,44.629559],[-124.019387,44.634366],[-124.051957,44.636301]],[[-123.265534,44.557715],[-123.269733,44.556429],[-123.2649,44.556867],[-123.258348,44.567041],[-123.26045,44.56757],[-123.265519,44.557743]],[[-123.301008,44.554286],[-123.351947,44.540882]],[[-123.095116,44.632275],[-123.103535,44.631515],[-123.107665,44.64182],[-123.104916,44.631504]],[[-121.544682,44.29064],[-121.554402,44.29137]],[[-121.290491,44.059959],[-121.280696,44.056398],[-121.289434,44.059954],[-121.302513,44.059961],[-121.302055,44.073383],[-121.306277,44.08677],[-121.304744,44.100521],[-121.3025,44.096161],[-121.304532,44.092637]],[[-121.31705,44.119127],[-121.338099,44.154144],[-121.363439,44.162899],[-121.369125,44.172134],[-121.423134,44.216457],[-121.470555,44.23723],[-121.47696,44.245185],[-121.507473,44.263475],[-121.518917,44.279519],[-121.541936,44.289059]],[[-123.097759,44.632585],[-123.082232,44.634205],[-123.053694,44.629345],[-122.950729,44.628964],[-122.941813,44.619312],[-122.930661,44.593352],[-122.915137,44.572817],[-122.905579,44.54359],[-122.906364,44.522391],[-122.885294,44.50875],[-122.848194,44.498489],[-122.808207,44.466975],[-122.764487,44.413284],[-122.762663,44.406149],[-122.751452,44.404808],[-122.735945,44.397591],[-122.657684,44.409759],[-122.641397,44.407978],[-122.629466,44.413474],[-122.607383,44.411111],[-122.602778,44.406986],[-122.593866,44.408675],[-122.593331,44.403257],[-122.58751,44.400069],[-122.567948,44.405878],[-122.56636,44.401968],[-122.544944,44.401359],[-122.5311,44.394347],[-122.507605,44.389962],[-122.481017,44.397244],[-122.447392,44.396837],[-122.43539,44.400168],[-122.415547,44.39864],[-122.408355,44.393912],[-122.382532,44.403883],[-122.368245,44.404739],[-122.360742,44.400328],[-122.344848,44.398384],[-122.334679,44.403101],[-122.316772,44.40204],[-122.305225,44.405632],[-122.297867,44.403588],[-122.292203,44.406755],[-122.279797,44.40578],[-122.24497,44.395156],[-122.215841,44.409277],[-122.210757,44.404939],[-122.215127,44.398468],[-122.225797,44.394217],[-122.215198,44.392023],[-122.209259,44.383246],[-122.198189,44.388682],[-122.182123,44.388394],[-122.179583,44.393674],[-122.166111,44.397222],[-122.14983,44.394209],[-122.134621,44.399157],[-122.109754,44.393364],[-122.085255,44.402542],[-122.057309,44.408063],[-122.042842,44.414822],[-122.019716,44.410381],[-122.000422,44.421913],[-121.973942,44.431162],[-121.941542,44.436544],[-121.926585,44.433881],[-121.921402,44.428626],[-121.875665,44.430916],[-121.878469,44.422046],[-121.872999,44.418866],[-121.842385,44.425344],[-121.832589,44.422764],[-121.820326,44.425381],[-121.765802,44.418412],[-121.714377,44.429788],[-121.677916,44.395424],[-121.657784,44.381748],[-121.62372,44.370529],[-121.56279,44.299425]],[[-123.295002,44.554553],[-123.269733,44.556429]],[[-123.257508,44.56676],[-123.252906,44.574585],[-123.23997,44.579808],[-123.229811,44.590095],[-123.208017,44.623278],[-123.179908,44.63697]],[[-123.083512,44.633416],[-123.08063,44.633634]],[[-123.103577,44.631145],[-123.099995,44.632306]],[[-122.907104,44.543593],[-122.90697,44.534346]],[[-123.104795,44.631021],[-123.104149,44.63108]],[[-123.084774,44.633271],[-123.084135,44.633341]],[[-123.092165,44.632435],[-123.085712,44.633157]],[[-121.273178,44.054954],[-121.244268,44.055574]],[[-123.179238,44.63719],[-123.138572,44.643203],[-123.107665,44.64182]],[[-121.556053,44.291873],[-121.557954,44.293735]],[[-121.274039,44.054996],[-121.28053,44.056444]],[[-121.559351,44.295659],[-121.55955,44.295911]],[[-121.333947,44.14909],[-121.330849,44.144864]],[[-121.244263,44.055783],[-121.245279,44.05547]],[[-121.24372,44.055602],[-121.242193,44.055778]],[[-123.25884,44.566058],[-123.258312,44.565939]],[[-121.296966,44.059962],[-121.297435,44.059963]],[[-121.310286,44.10936],[-121.310286,44.10936]],[[-121.306595,44.103878],[-121.310111,44.108955]],[[-121.310594,44.108973],[-121.30707,44.103777]],[[-121.316854,44.118845],[-121.31057,44.109297]],[[-121.310089,44.109279],[-121.316436,44.119011]],[[-121.307008,44.103844],[-121.307008,44.103844]],[[-121.316618,44.119269],[-121.317912,44.120831]],[[-121.317065,44.119058],[-121.317065,44.119058]],[[-121.306953,44.10349],[-121.306502,44.103555]],[[-121.30606,44.102591],[-121.304744,44.100521]],[[-117.006376,43.989192],[-117.009473,43.988657]],[[-117.006045,43.988899],[-117.006045,43.988899]],[[-117.005689,43.987582],[-117.005854,43.988919]],[[-121.300527,44.059966],[-121.30093,44.059965]],[[-121.559824,44.295804],[-121.55967,44.295553]],[[-121.259303,44.054882],[-121.260916,44.054884]]]}},{"type":"Feature","properties":{"state":"ID","relation_id":406627,"ref":"US 20"},"geometry":{"type":"MultiLineString","coordinates":[[[-116.195491,43.568228],[-116.196402,43.565725],[-116.159821,43.540557],[-116.140025,43.503724],[-116.105512,43.476487],[-116.060855,43.433576],[-116.027388,43.413179],[-115.785667,43.188677],[-115.764234,43.177368],[-115.701677,43.161873],[-115.675403,43.148646],[-115.664299,43.138322],[-115.663215,43.140423],[-115.675229,43.148927],[-115.701001,43.161935],[-115.764128,43.177692],[-115.785225,43.188799],[-116.025467,43.412754],[-116.060255,43.434036],[-116.103743,43.476602],[-116.139037,43.503415],[-116.159492,43.540568],[-116.19612,43.566985],[-116.19356,43.572429],[-116.193567,43.600927],[-116.194517,43.56976]],[[-116.207594,43.613165],[-116.19339,43.607977],[-116.215176,43.619048],[-116.235465,43.619943],[-116.231967,43.617656],[-116.215246,43.618891],[-116.207594,43.613165]],[[-116.193567,43.600927],[-116.19344,43.605989]],[[-116.393215,43.662904],[-116.374808,43.662885]],[[-116.658661,43.663052],[-116.686418,43.676659],[-116.692072,43.690495],[-116.694079,43.690051],[-116.686486,43.676519],[-116.661497,43.662618],[-116.472753,43.663006]],[[-111.275812,44.674591],[-111.308947,44.661472],[-111.321371,44.638694],[-111.333967,44.627958],[-111.337235,44.569873],[-111.327012,44.520149],[-111.327958,44.512622],[-111.338758,44.497449],[-111.366518,44.441833],[-111.375668,44.406816],[-111.404264,44.360959],[-111.452157,44.321095],[-111.458157,44.293578],[-111.468974,44.273394],[-111.468981,44.265046],[-111.444849,44.189938],[-111.430302,44.180416],[-111.423399,44.165596],[-111.424614,44.14953],[-111.455308,44.097534],[-111.45651,44.067578],[-111.492454,44.037468],[-111.502944,44.024905],[-111.521176,44.015441],[-111.571329,43.998752],[-111.639091,43.969996],[-111.687505,43.962322],[-111.695932,43.957948],[-111.702756,43.93622],[-111.734346,43.897397],[-111.765438,43.867296],[-111.784288,43.862729],[-111.807071,43.848297],[-111.81122,43.839043],[-111.812524,43.80791],[-111.819698,43.792231],[-111.870171,43.729602],[-111.897286,43.70138],[-111.906655,43.678065],[-111.961755,43.600868],[-111.970106,43.593253],[-111.973613,43.583786],[-111.998809,43.548229],[-112.046413,43.509],[-112.057849,43.505244],[-112.054173,43.499864],[-112.055403,43.496745],[-112.141274,43.497185],[-112.159578,43.504199],[-112.183487,43.506855],[-112.226334,43.521654],[-112.44177,43.557346],[-112.488946,43.551268],[-112.618976,43.553579],[-112.772499,43.512595],[-112.84636,43.50398],[-112.946468,43.510865],[-113.004729,43.547892],[-113.158669,43.606032],[-113.264233,43.610121],[-113.300101,43.636623],[-113.305983,43.632464],[-113.307053,43.617335],[-113.324091,43.608241],[-113.448389,43.575327],[-113.475696,43.559236],[-113.538652,43.48798],[-113.547322,43.470554],[-113.604713,43.439093],[-113.619191,43.435608],[-113.619358,43.426851],[-113.62826,43.413163],[-113.625784,43.406935],[-113.628797,43.39871],[-113.63768,43.393202],[-113.653552,43.390914],[-113.663515,43.386092],[-113.681425,43.38914],[-113.752613,43.371531],[-113.762569,43.3662],[-113.827626,43.36286],[-113.856411,43.346316],[-113.884074,43.335121],[-113.926853,43.334721],[-113.945621,43.317736],[-113.945812,43.302092],[-113.9587,43.301724],[-113.967404,43.295986],[-113.979418,43.293611],[-113.992893,43.295474],[-114.013281,43.290774],[-114.034028,43.295363],[-114.05265,43.305732],[-114.131078,43.323951],[-114.141883,43.330923],[-114.237156,43.33061],[-114.252064,43.332909],[-114.331244,43.327601],[-114.398173,43.336772],[-114.505552,43.341875],[-114.957753,43.342643],[-115.058685,43.298134],[-115.095261,43.299564],[-115.170763,43.31522],[-115.215039,43.31857],[-115.262194,43.314349],[-115.292285,43.30104],[-115.313031,43.302285],[-115.326958,43.296211],[-115.32979,43.303204],[-115.328294,43.310998],[-115.342405,43.321513],[-115.379906,43.314167],[-115.392002,43.31453],[-115.407092,43.321045],[-115.420988,43.320393],[-115.428222,43.318416],[-115.446173,43.303323],[-115.454255,43.290775],[-115.498096,43.279162],[-115.518161,43.26206],[-115.541847,43.257387],[-115.552865,43.249618],[-115.567838,43.253235],[-115.582986,43.249582],[-115.585893,43.24297],[-115.556516,43.208835],[-115.555069,43.197494],[-115.595766,43.190869],[-115.612774,43.184919],[-115.653078,43.157574],[-115.663215,43.140423]],[[-112.055403,43.496745],[-112.053014,43.496431],[-112.053056,43.504981]],[[-116.918697,43.770521],[-116.946751,43.787035],[-116.951805,43.793823],[-116.954547,43.872028]],[[-116.694079,43.690051],[-116.877385,43.749582],[-116.909668,43.765704]],[[-116.955646,43.872934],[-116.971707,43.872942],[-116.983794,43.876954]],[[-112.04526,43.509878],[-112.033617,43.521077],[-112.013651,43.533169],[-111.998328,43.54851],[-111.973309,43.58385],[-111.969746,43.59337],[-111.962198,43.599943],[-111.906449,43.677996],[-111.897802,43.700261],[-111.868891,43.730698],[-111.819,43.792595],[-111.811677,43.810052],[-111.810371,43.841059],[-111.804496,43.850602],[-111.783638,43.862664],[-111.765523,43.866857],[-111.733403,43.89779],[-111.702695,43.935505],[-111.697953,43.954376],[-111.693275,43.959797],[-111.640028,43.969517],[-111.563612,44.001244]],[[-112.047392,43.508358],[-112.046413,43.509]],[[-116.235465,43.619943],[-116.287191,43.652701],[-116.316613,43.660524],[-116.344731,43.662922]],[[-116.609625,43.663155],[-116.65762,43.662738]],[[-116.277771,43.647994],[-116.281421,43.649863]],[[-116.351111,43.66298],[-116.345886,43.662921]]]}},{"type":"Feature","properties":{"state":"MT","relation_id":20002033,"ref":"US 20"},"geometry":{"type":"MultiLineString","coordinates":[[[-111.09711,44.658651],[-111.099686,44.658718],[-111.099679,44.662236],[-111.181964,44.675873],[-111.218594,44.685933],[-111.242554,44.687646],[-111.26215,44.68495],[-111.275812,44.674591]]]}},{"type":"Feature","properties":{"state":"WY","relation_id":408084,"ref":"US 20"},"geometry":{"type":"MultiLineString","coordinates":[[[-105.797585,42.826081],[-105.821675,42.845474],[-105.85769,42.861322],[-105.924254,42.861043],[-105.992497,42.845646],[-106.008392,42.846995],[-106.039434,42.860534],[-106.104733,42.853322],[-106.13586,42.856101],[-106.168438,42.852333],[-106.193756,42.843045],[-106.22259,42.853368],[-106.262781,42.857811],[-106.288405,42.855393],[-106.297407,42.857903],[-106.332057,42.857225],[-106.343975,42.868007],[-106.40184,42.861839],[-106.434983,42.879512],[-106.46053,42.889045],[-106.476775,42.890683],[-106.490148,42.900592],[-106.583549,42.929749],[-106.658509,42.95993],[-106.68814,42.975734],[-106.744761,43.018182],[-106.769377,43.02841],[-106.827573,43.029946],[-106.863209,43.034674],[-106.948054,43.025457],[-106.978955,43.031905],[-107.012938,43.032226],[-107.034844,43.040509],[-107.069406,43.040587],[-107.109039,43.053759],[-107.167178,43.066137],[-107.284747,43.0776],[-107.32097,43.091615],[-107.356047,43.118861],[-107.402832,43.136316],[-107.499327,43.142543],[-107.646548,43.140308],[-107.716639,43.161531],[-107.831273,43.171719],[-107.902783,43.189916],[-107.928635,43.207886],[-107.9736,43.221493],[-108.011435,43.220458],[-108.043196,43.223516],[-108.075982,43.235876],[-108.110544,43.23554],[-108.111758,43.263466],[-108.126675,43.286756],[-108.12893,43.296327],[-108.115294,43.363397],[-108.160037,43.394404],[-108.174128,43.409608],[-108.178178,43.431577],[-108.168664,43.447511],[-108.170764,43.477729],[-108.159018,43.489815],[-108.158563,43.49678],[-108.169923,43.50759],[-108.18506,43.513292],[-108.175271,43.526939],[-108.181829,43.540968],[-108.206501,43.556818],[-108.213512,43.582723],[-108.215742,43.606716],[-108.222563,43.618035],[-108.219389,43.628313],[-108.221217,43.6369],[-108.212374,43.638515],[-108.211775,43.650358],[-108.205216,43.651055],[-108.197884,43.657372],[-108.205491,43.674959],[-108.176106,43.700214],[-108.176328,43.7669],[-108.184327,43.781953],[-108.191476,43.805943],[-108.203458,43.826202],[-108.20405,43.836226],[-108.197888,43.846744],[-108.182194,43.857272],[-108.14658,43.869322],[-108.120168,43.898301],[-108.057901,43.925763],[-108.024205,43.947134],[-108.009015,43.964858],[-108.006857,43.980867],[-107.978697,44.013097],[-107.955797,44.016833],[-107.954019,44.028722],[-107.926217,44.069584],[-107.920466,44.098107],[-107.908846,44.110606],[-107.908641,44.164433],[-107.903284,44.195009],[-107.906432,44.214619],[-107.948629,44.261855],[-107.959143,44.266578],[-107.977487,44.265746],[-107.988371,44.269465],[-108.022237,44.270675],[-108.036016,44.277398],[-108.041658,44.283647],[-108.045253,44.297802],[-108.042344,44.312463],[-108.049562,44.333731],[-108.048427,44.344473],[-108.039361,44.357958],[-108.038984,44.385438],[-108.046138,44.397385],[-108.050964,44.452112],[-108.058515,44.465066],[-108.055305,44.485792],[-108.055415,44.502817],[-108.058,44.505868],[-108.108188,44.510705],[-108.228528,44.504096],[-108.253415,44.509139],[-108.276937,44.506141],[-108.424185,44.505654],[-108.437017,44.499012],[-108.442456,44.491871],[-108.523357,44.460101],[-108.570111,44.461841],[-108.616561,44.458482],[-108.678196,44.472922],[-108.714972,44.476981],[-108.799444,44.479818],[-108.823658,44.47803],[-108.953648,44.511472],[-109.049526,44.513648],[-109.053758,44.516481],[-109.054898,44.526088],[-109.071059,44.526034],[-109.072035,44.518022],[-109.076246,44.516755],[-109.118846,44.51088],[-109.128156,44.5132],[-109.174098,44.50904],[-109.187906,44.500813],[-109.222726,44.499912],[-109.252778,44.505352],[-109.282099,44.501825],[-109.318531,44.48804],[-109.353617,44.485664],[-109.4098,44.47552],[-109.449678,44.462478],[-109.520656,44.462564],[-109.527698,44.459754],[-109.561998,44.459207],[-109.585663,44.463904],[-109.602925,44.460562],[-109.636635,44.467934],[-109.669605,44.462608],[-109.699691,44.468471],[-109.727299,44.456116],[-109.744462,44.462086],[-109.754648,44.452775],[-109.771985,44.459099],[-109.788032,44.452656],[-109.827812,44.455627],[-109.835958,44.45261],[-109.84416,44.458847],[-109.862515,44.459123],[-109.86951,44.467238],[-109.882352,44.471973],[-109.897493,44.47057],[-109.899747,44.478099],[-109.90833,44.479967],[-109.927032,44.491592],[-109.95817,44.502001],[-109.994026,44.493853],[-110.002382,44.489089]],[[-105.797467,42.826386],[-105.797689,42.823616],[-105.753445,42.81861],[-105.718117,42.820687],[-105.65425,42.800916],[-105.602791,42.793773],[-105.55432,42.792536],[-105.51661,42.781301],[-105.444746,42.77969],[-105.426462,42.76239],[-105.40975,42.75757],[-105.405488,42.745511],[-105.394588,42.738777],[-105.355276,42.737593],[-105.31994,42.722311],[-105.275307,42.710934],[-105.217071,42.674799],[-105.20486,42.657002],[-105.198571,42.656801],[-105.205105,42.659909],[-105.217226,42.675114],[-105.27523,42.711092],[-105.319519,42.72238],[-105.354967,42.737701],[-105.394569,42.738987],[-105.405032,42.745359],[-105.409289,42.75746],[-105.426962,42.762949],[-105.439012,42.776912],[-105.445613,42.780282],[-105.515805,42.781379],[-105.554274,42.792716],[-105.603384,42.794009],[-105.654061,42.801055],[-105.719104,42.821046],[-105.752535,42.818736],[-105.791098,42.823437],[-105.798392,42.827067]],[[-104.052622,42.66109],[-104.119164,42.663629],[-104.155474,42.668542],[-104.20126,42.691973],[-104.444635,42.762718],[-104.452187,42.762649],[-104.451838,42.75533],[-104.484373,42.74805],[-104.562394,42.747885],[-104.582994,42.752844],[-104.623283,42.775807],[-104.67586,42.776784],[-104.702139,42.767877],[-104.750455,42.75833],[-104.788862,42.760343],[-104.820215,42.75648],[-104.871102,42.760853],[-104.903598,42.759855],[-104.924101,42.763328],[-104.997986,42.751871],[-105.031949,42.7375],[-105.057472,42.722861],[-105.068045,42.711762],[-105.099768,42.696914],[-105.123566,42.672382],[-105.18077,42.656624],[-105.198571,42.656801]],[[-106.403441,42.86243],[-106.349429,42.865896],[-106.332013,42.857104],[-106.288405,42.855393]],[[-106.277195,42.856382],[-106.262809,42.857695],[-106.214336,42.850704]]]}},{"type":"Feature","properties":{"state":"NE","relation_id":408085,"ref":"US 20"},"geometry":{"type":"MultiLineString","coordinates":[[[-97.427674,42.366079],[-97.561574,42.365631],[-97.616231,42.351137],[-98.01976,42.349757],[-98.045856,42.3406],[-98.084414,42.335256],[-98.459846,42.336915]],[[-103.403225,42.677527],[-103.401603,42.693088],[-103.376392,42.697325],[-103.348533,42.713912],[-103.246413,42.761108],[-103.178829,42.787388],[-103.102703,42.823333],[-103.076314,42.828292],[-103.009548,42.83013],[-102.950065,42.828271],[-102.92709,42.823885],[-102.90794,42.810879],[-102.828317,42.777396],[-102.796191,42.752979],[-102.766696,42.722008],[-102.719474,42.692131],[-102.699977,42.683559],[-102.682395,42.680634],[-102.623598,42.69225],[-102.591358,42.70187],[-102.475783,42.718068],[-102.453566,42.718249],[-102.401915,42.728103],[-102.357618,42.753937],[-102.25866,42.798716],[-101.972074,42.80004],[-101.932045,42.804702],[-101.908014,42.815073],[-101.87757,42.834813],[-101.869398,42.871751],[-101.863382,42.879572],[-101.838117,42.895228],[-101.812641,42.899359],[-101.770475,42.923353],[-101.733473,42.923221],[-101.692789,42.918694],[-101.659885,42.926221],[-101.471097,42.919729],[-101.408,42.921873],[-101.381939,42.934437],[-101.347967,42.940649],[-101.32565,42.940197],[-101.299813,42.933431],[-101.286755,42.938561],[-101.26828,42.940613],[-101.219476,42.929391],[-101.191525,42.927229],[-101.163956,42.930855],[-101.136277,42.930301],[-101.067762,42.922274],[-101.048516,42.923253],[-101.020762,42.918312],[-101.000766,42.921602],[-100.980207,42.932957],[-100.966464,42.935379],[-100.943556,42.934549],[-100.885433,42.916746],[-100.831789,42.929345],[-100.762037,42.927505],[-100.707197,42.910243],[-100.695894,42.903021],[-100.666343,42.894657],[-100.615194,42.873527],[-100.596383,42.869086],[-100.54224,42.86678],[-100.531923,42.840867],[-100.51806,42.833947],[-100.502084,42.804913],[-100.455143,42.79911],[-100.450021,42.786591],[-100.421118,42.754109],[-100.40173,42.74789],[-100.38727,42.734816],[-100.373208,42.730627],[-100.321506,42.678467],[-100.303322,42.66453],[-100.256204,42.646016],[-100.241797,42.63585],[-100.22018,42.631309],[-100.184928,42.616871],[-100.138999,42.593951],[-100.104901,42.569505],[-100.06851,42.574416],[-100.017053,42.560612],[-99.934444,42.557426],[-99.883788,42.549887],[-99.723,42.550465],[-99.6967,42.546439],[-99.661402,42.550537],[-99.562709,42.579461],[-99.413663,42.579582],[-99.347536,42.594134],[-99.133227,42.594212],[-99.100907,42.579984],[-99.056766,42.56707],[-98.986094,42.537173],[-98.972328,42.536489],[-98.970246,42.528375],[-98.91516,42.496547],[-98.876784,42.482462],[-98.853532,42.479123],[-98.782046,42.47893],[-98.750732,42.466071],[-98.68039,42.457537],[-98.635875,42.457225],[-98.622969,42.44598],[-98.600802,42.434403],[-98.457991,42.335653]],[[-97.423688,42.36609],[-97.403829,42.366432],[-97.352912,42.38346],[-97.30832,42.389356],[-97.259409,42.405453],[-97.227435,42.41225],[-97.17825,42.420806],[-97.09876,42.424143],[-97.096085,42.426548],[-97.093818,42.443949],[-97.093795,42.462924],[-97.087622,42.467224],[-96.843146,42.466994],[-96.825844,42.472211],[-96.764933,42.475074],[-96.627001,42.475161],[-96.612908,42.47168],[-96.584949,42.448077],[-96.407055,42.449587],[-96.380188,42.44692]],[[-96.548878,42.448358],[-96.406314,42.449361],[-96.380205,42.44681]],[[-104.052622,42.66109],[-103.965753,42.682913],[-103.929523,42.684008],[-103.884948,42.691239],[-103.805074,42.691269],[-103.785727,42.684043],[-103.707552,42.683588],[-103.642104,42.660037],[-103.622809,42.65885],[-103.609247,42.654287],[-103.569125,42.661654],[-103.554173,42.656812],[-103.536146,42.644198],[-103.529388,42.642712],[-103.470963,42.661663],[-103.463072,42.669848],[-103.44184,42.678409],[-103.40435,42.677533]],[[-103.403371,42.678569],[-103.405119,42.677561]],[[-103.403328,42.679565],[-103.403359,42.677442]]]}},{"type":"Feature","properties":{"state":"IA","relation_id":408086,"ref":"US 20"},"geometry":{"type":"MultiLineString","coordinates":[[[-92.308576,42.455131],[-92.294736,42.459375],[-92.265153,42.460259],[-92.243366,42.452103],[-92.219055,42.449361],[-91.979614,42.450106],[-91.950033,42.445852],[-91.866783,42.449638],[-91.79491,42.461947],[-91.482035,42.464004],[-91.441137,42.471011],[-91.362746,42.468761],[-91.129073,42.471059],[-91.085808,42.468848],[-91.022672,42.448862],[-91.007331,42.437935],[-90.991518,42.440701],[-90.794638,42.43963],[-90.779672,42.445584],[-90.776744,42.454738],[-90.752003,42.485138],[-90.722696,42.49192],[-90.675949,42.489727],[-90.666492,42.492183],[-90.675868,42.48985],[-90.723613,42.492046],[-90.751923,42.485436],[-90.776837,42.455082],[-90.779885,42.445749],[-90.79395,42.439833],[-90.991542,42.440906],[-91.007361,42.438143],[-91.023061,42.449259],[-91.086097,42.469173],[-91.129139,42.471281],[-91.362009,42.46905],[-91.44175,42.471249],[-91.483593,42.464214],[-91.794931,42.462193],[-91.866831,42.449873],[-91.950046,42.446105],[-91.979699,42.450353],[-92.219035,42.449604],[-92.243257,42.452342],[-92.26591,42.460519],[-92.29524,42.459551],[-92.322863,42.45281],[-92.386119,42.453921],[-92.429103,42.463803],[-92.496388,42.465819],[-92.604539,42.46441],[-92.62526,42.460185],[-92.647717,42.463752],[-92.911496,42.46369],[-93.039409,42.462599],[-93.061654,42.451196],[-93.080508,42.430274],[-93.096743,42.426533],[-93.192124,42.426758],[-93.205663,42.437262],[-93.228444,42.448389],[-94.123405,42.451037],[-94.14694,42.445418],[-94.182463,42.445203],[-94.284559,42.452735],[-94.317198,42.449437],[-94.431333,42.449706],[-94.468222,42.446452],[-94.483971,42.449343],[-94.881745,42.449934],[-94.917195,42.454145],[-95.01066,42.453512],[-95.017765,42.455926],[-95.02471,42.466293],[-95.032514,42.469541],[-95.130557,42.46982],[-95.167736,42.474769],[-95.749856,42.4747],[-95.764249,42.481528],[-95.775915,42.482183],[-95.76467,42.481425],[-95.74966,42.474383],[-95.167749,42.474508],[-95.128242,42.469473],[-95.032448,42.469263],[-95.024844,42.466],[-95.018006,42.455738],[-95.010672,42.453246],[-94.915347,42.453834],[-94.882246,42.449691],[-94.483923,42.44908],[-94.468259,42.446138],[-94.431306,42.44942],[-94.317239,42.44919],[-94.284573,42.45249],[-94.181798,42.444953],[-94.147162,42.445153],[-94.123889,42.450773],[-93.228811,42.448139],[-93.189818,42.426286],[-93.087991,42.427052],[-93.077345,42.432158],[-93.060744,42.45151],[-93.037032,42.46259],[-92.647717,42.463499],[-92.624802,42.459927],[-92.604502,42.464152],[-92.496791,42.465573],[-92.428924,42.463534],[-92.386807,42.453709],[-92.324231,42.452514],[-92.308576,42.455131]],[[-95.775915,42.482183],[-96.092656,42.482012],[-96.10681,42.474813],[-96.319619,42.475215],[-96.324464,42.462641],[-96.339206,42.444572],[-96.380205,42.44681]],[[-95.79143,42.482339],[-96.092943,42.482215],[-96.106847,42.475014],[-96.325044,42.476953],[-96.32435,42.463547],[-96.339098,42.444904],[-96.380188,42.44692]],[[-90.662116,42.491676],[-90.655931,42.491629]]]}},{"type":"Feature","properties":{"state":"IL","relation_id":2308560,"ref":"US 20"},"geometry":{"type":"MultiLineString","coordinates":[[[-88.121969,41.97315],[-88.141893,41.983147],[-88.145589,41.988527],[-88.157734,41.990714],[-88.173651,42.001187],[-88.241201,42.019512],[-88.312313,42.023402],[-88.390903,42.048094],[-88.405403,42.055644],[-88.411588,42.066007],[-88.426514,42.063135],[-88.432239,42.065934],[-88.455607,42.081846],[-88.45679,42.08862],[-88.46656,42.089092],[-88.480701,42.099111],[-88.482142,42.123472],[-88.50225,42.137324],[-88.5269,42.16106],[-88.536629,42.189584],[-88.567583,42.220098],[-88.574223,42.232976],[-88.607767,42.248202],[-88.757257,42.253975],[-88.797209,42.241131],[-88.96738,42.239345],[-88.981824,42.224802],[-88.994047,42.220396],[-89.114913,42.219565],[-89.131713,42.2299],[-89.15196,42.261235],[-89.175649,42.267024],[-89.19863,42.280869],[-89.349394,42.287664],[-89.390678,42.286734],[-89.434605,42.275914],[-89.534301,42.276213],[-89.555832,42.289867],[-89.56027,42.310665],[-89.579167,42.313659],[-89.590455,42.320718],[-89.636343,42.321981],[-89.661909,42.331616],[-89.754271,42.327345],[-89.796146,42.354835],[-89.807431,42.356976],[-90.022315,42.355241],[-90.087232,42.357684],[-90.104663,42.346713],[-90.15332,42.34073],[-90.173023,42.326119],[-90.175959,42.318408],[-90.181709,42.313969],[-90.207933,42.31609],[-90.216768,42.313895],[-90.223209,42.31889],[-90.240639,42.313059],[-90.265552,42.323748],[-90.2724,42.332504],[-90.291577,42.340516],[-90.294406,42.345416],[-90.292872,42.352163],[-90.299004,42.358334],[-90.314033,42.362794],[-90.326564,42.37169],[-90.336975,42.370487],[-90.350637,42.373559],[-90.371207,42.382408],[-90.384071,42.405202],[-90.394743,42.406032],[-90.399259,42.409615],[-90.410846,42.406248],[-90.431791,42.410844],[-90.442971,42.41973],[-90.443014,42.427175],[-90.453791,42.439961],[-90.45778,42.453714],[-90.493262,42.457137],[-90.507076,42.462606],[-90.576459,42.462356],[-90.619818,42.475407],[-90.642503,42.491681],[-90.621988,42.476464],[-90.582,42.464556],[-90.573913,42.459052],[-90.557376,42.462574],[-90.507628,42.461967],[-90.493387,42.456784],[-90.462209,42.453951]],[[-90.642624,42.491694],[-90.655931,42.491629]],[[-87.917262,41.906125],[-87.943331,41.916909],[-87.95054,41.91772],[-87.925374,41.906244],[-87.883495,41.89723],[-87.883432,41.889425],[-87.883675,41.897106],[-87.88865,41.898222]],[[-88.072933,41.957499],[-88.037363,41.952419],[-88.018256,41.944726],[-88.037514,41.952592],[-88.072933,41.957499]],[[-88.130053,41.976868],[-88.145734,41.988767],[-88.159156,41.99148]],[[-88.018256,41.944726],[-87.95054,41.91772]],[[-87.883432,41.889425],[-87.881814,41.849899],[-87.869806,41.817935],[-87.867221,41.759459],[-87.85223,41.745204],[-87.854379,41.738761],[-87.851725,41.717894],[-87.846998,41.717959],[-87.851903,41.717888],[-87.854562,41.73875],[-87.852603,41.744608],[-87.866694,41.757531],[-87.867633,41.765789]],[[-87.587181,41.722319],[-87.746498,41.719983]],[[-87.791876,41.719386],[-87.768423,41.71969]],[[-87.881568,41.849362],[-87.882923,41.871903]],[[-87.586304,41.722333],[-87.536508,41.722935],[-87.53528,41.714943]],[[-87.535277,41.71368],[-87.524487,41.702692]],[[-89.704343,42.331292],[-89.659885,42.331222],[-89.636721,42.321847],[-89.592482,42.320972],[-89.578748,42.313291],[-89.563807,42.312156],[-89.557799,42.307003],[-89.55582,42.289344],[-89.534503,42.275939],[-89.434648,42.275675],[-89.391058,42.286476],[-89.350725,42.287442],[-89.197922,42.279901],[-89.175885,42.266881],[-89.152689,42.261481],[-89.131639,42.229486],[-89.114612,42.219335],[-88.993394,42.220271],[-88.983579,42.223426],[-88.962813,42.238947],[-88.80812,42.241065]],[[-87.80945,41.718721],[-87.846998,41.717959]],[[-88.233709,42.01772],[-88.243283,42.021402],[-88.309158,42.022924],[-88.350531,42.035938]],[[-88.209688,42.010437],[-88.19587,42.006187]],[[-88.510183,42.147028],[-88.514765,42.151024]],[[-88.093437,41.961405],[-88.118319,41.97143]],[[-87.722696,41.72045],[-87.605639,41.722037]],[[-87.524472,41.703],[-87.535268,41.712825]],[[-87.750037,41.719916],[-87.76696,41.719714]],[[-87.96173,41.921656],[-87.982283,41.930196]],[[-87.819856,41.718518],[-87.821521,41.718483]],[[-87.591893,41.722249],[-87.591422,41.722256]],[[-87.770151,41.719678],[-87.768566,41.719703]],[[-87.990196,41.932555],[-87.995429,41.935012]],[[-88.525938,42.160192],[-88.527332,42.162492]],[[-88.553079,42.206023],[-88.549563,42.202451]],[[-87.603184,41.722045],[-87.604486,41.72205]],[[-87.546512,41.722779],[-87.548346,41.722758]],[[-87.560185,41.722656],[-87.559195,41.722667]],[[-87.868242,41.780406],[-87.868054,41.776589]]]}},{"type":"Feature","properties":{"state":"IN","relation_id":2308561,"ref":"US 20"},"geometry":{"type":"MultiLineString","coordinates":[[[-86.80991,41.693682],[-86.798829,41.692099],[-86.80991,41.693682]],[[-85.051308,41.634887],[-85.151362,41.634504],[-85.162695,41.644098],[-85.169465,41.64497],[-85.252683,41.641074],[-85.544726,41.640435],[-85.576301,41.654598],[-85.706022,41.65413],[-85.72903,41.668328],[-85.892769,41.666681],[-85.906916,41.658057],[-85.931607,41.656306],[-85.968028,41.640137],[-86.053352,41.616373],[-86.089359,41.617184],[-86.120853,41.624517],[-86.267827,41.625227],[-86.337726,41.662675],[-86.340619,41.668404],[-86.340865,41.68854],[-86.337645,41.706581],[-86.34897,41.709628],[-86.340256,41.702454],[-86.340803,41.6688],[-86.33815,41.662941],[-86.272943,41.626056],[-86.120378,41.624356],[-86.07206,41.616061],[-86.039805,41.619518],[-86.022457,41.626638],[-85.967947,41.64002],[-85.931526,41.656176],[-85.906853,41.657923],[-85.893859,41.666319],[-85.869594,41.667075]],[[-86.829708,41.696364],[-86.825634,41.697669],[-86.829121,41.699498],[-86.833813,41.691403],[-86.839822,41.688016],[-86.86999,41.687447]],[[-86.899368,41.680388],[-86.955287,41.682315],[-87.033479,41.63751],[-87.055369,41.636555],[-87.083959,41.625275],[-87.096339,41.612958],[-87.113099,41.604562],[-87.096847,41.612617]],[[-86.34897,41.709628],[-86.370352,41.715286],[-86.426468,41.708356],[-86.501317,41.708486],[-86.568848,41.689524],[-86.584731,41.679792],[-86.588796,41.673892],[-86.609204,41.669789],[-86.798829,41.692099]],[[-86.892028,41.680327],[-86.877988,41.685714]],[[-87.524472,41.703],[-87.484429,41.664002],[-87.480902,41.654118],[-87.480668,41.610069],[-87.452038,41.609925],[-87.424223,41.601889],[-87.375793,41.601928],[-87.424265,41.601783],[-87.440028,41.605468]],[[-87.291347,41.594881],[-87.325158,41.602101],[-87.371948,41.603777],[-87.332775,41.603906],[-87.300137,41.595177],[-87.261793,41.596756],[-87.198632,41.590575],[-87.180493,41.598359],[-87.132047,41.600187],[-87.113099,41.604562]],[[-84.805958,41.63145],[-84.885388,41.629314],[-84.904454,41.632556],[-84.946593,41.631266],[-84.998135,41.634868]],[[-86.602524,41.671338],[-86.58895,41.671954],[-86.58834,41.67438]],[[-86.825634,41.697669],[-86.816337,41.695349]],[[-87.375793,41.601928],[-87.371925,41.601941]],[[-87.524487,41.702692],[-87.508519,41.688009]],[[-85.700757,41.654152],[-85.709346,41.655689]],[[-85.740593,41.668111],[-85.821016,41.667375]],[[-87.178783,41.59853],[-87.169533,41.598662]],[[-85.004892,41.634865],[-85.045288,41.634929]],[[-87.242288,41.595293],[-87.238865,41.595114]],[[-87.265806,41.596596],[-87.267097,41.596669]],[[-85.005699,41.634926],[-85.006279,41.634974]],[[-85.001599,41.634841],[-85.003995,41.634812]]]}},{"type":"Feature","properties":{"state":"OH","relation_id":1017178,"ref":"US 20"},"geometry":{"type":"MultiLineString","coordinates":[[[-83.624046,41.558508],[-83.627844,41.557108],[-83.630061,41.560414],[-83.641793,41.556019],[-83.650015,41.556821],[-83.66479,41.580388],[-83.664644,41.653358],[-83.667438,41.656071],[-83.66826,41.671704],[-83.67386,41.676605],[-83.713858,41.67367],[-84.2278,41.667588],[-84.231715,41.677801],[-84.24959,41.678167],[-84.269407,41.674239],[-84.358565,41.673311],[-84.364474,41.666251],[-84.563326,41.665522],[-84.569653,41.662168],[-84.574651,41.64364],[-84.656049,41.643324],[-84.805958,41.63145]],[[-81.691761,41.499505],[-81.650361,41.504358],[-81.612174,41.503703],[-81.607142,41.507466],[-81.612401,41.5038],[-81.65036,41.504487],[-81.691761,41.499505]],[[-82.076282,41.377721],[-82.075645,41.35913],[-82.068698,41.348897],[-82.064637,41.331947],[-82.115936,41.318574],[-82.144268,41.306784],[-82.187802,41.279341],[-82.144968,41.306678],[-82.116695,41.318522],[-82.06788,41.332281],[-82.068746,41.348246],[-82.076031,41.359753],[-82.076431,41.377675],[-82.033851,41.385981],[-81.997432,41.397615],[-81.976785,41.409578],[-81.962806,41.422214],[-81.949118,41.427757],[-81.926021,41.44799],[-81.895729,41.457532],[-81.873572,41.456771],[-81.83841,41.465663],[-81.832891,41.482511],[-81.822693,41.486271],[-81.822555,41.491084],[-81.78278,41.490846],[-81.766156,41.487016]],[[-80.519346,41.943914],[-80.543611,41.939585],[-80.554007,41.944184],[-80.567517,41.943476],[-80.581709,41.937108],[-80.596211,41.937247],[-80.609366,41.928412],[-80.666949,41.917301],[-80.758075,41.876905],[-80.77637,41.873914],[-80.880376,41.823509],[-80.964878,41.799372],[-80.990296,41.801039],[-81.015987,41.798347],[-81.066985,41.802795],[-81.136628,41.785136],[-81.163854,41.774559],[-81.220857,41.74111],[-81.240976,41.734037],[-81.24823,41.722668],[-81.296222,41.682447],[-81.365142,41.659898],[-81.394291,41.644087],[-81.406565,41.642529],[-81.41564,41.630228],[-81.457596,41.618524],[-81.51172,41.579967],[-81.535167,41.568986],[-81.566009,41.545948],[-81.60375,41.510186]],[[-82.690595,41.236937],[-82.634084,41.224252],[-82.606225,41.221339],[-82.576706,41.229083],[-82.573297,41.233932],[-82.571393,41.249605],[-82.575508,41.250691],[-82.573192,41.23578],[-82.577605,41.228647],[-82.608229,41.2214],[-82.688325,41.235815],[-82.695812,41.245427],[-82.703937,41.249242],[-82.778929,41.264054],[-82.814856,41.267874],[-82.824525,41.272134],[-82.808167,41.26664],[-82.777132,41.264058],[-82.701838,41.24857]],[[-82.187802,41.279341],[-82.199197,41.270789],[-82.216224,41.265666],[-82.256101,41.265054],[-82.286465,41.25846],[-82.405415,41.254825],[-82.410227,41.247533],[-82.540714,41.24924]],[[-82.852566,41.276925],[-82.968894,41.30834],[-82.841363,41.273815],[-82.825267,41.27217]],[[-83.572129,41.537281],[-83.166781,41.369443],[-83.088702,41.364408],[-83.075675,41.355098],[-83.060099,41.333089],[-82.969307,41.308392]],[[-82.986436,41.312989],[-83.058403,41.332845],[-83.075672,41.355393],[-83.088238,41.364445],[-83.166384,41.36952],[-83.352707,41.446208]],[[-83.610562,41.553144],[-83.622933,41.558131]],[[-81.694482,41.499251],[-81.715232,41.48864],[-81.72903,41.491624],[-81.753084,41.484655]],[[-81.746428,41.48482],[-81.729341,41.491443],[-81.716864,41.488282],[-81.707874,41.491922]],[[-81.607142,41.507466],[-81.605008,41.509147]],[[-83.442812,41.483184],[-83.465439,41.492426]],[[-83.575512,41.538757],[-83.583788,41.542172]],[[-83.663512,41.578973],[-83.664673,41.612291]],[[-83.706911,41.674624],[-83.679184,41.676393]],[[-81.192031,41.758761],[-81.195174,41.756793]],[[-81.758656,41.485714],[-81.758656,41.485714]],[[-83.67324,41.676038],[-83.67386,41.676605]],[[-84.358565,41.673311],[-84.360261,41.671435]],[[-81.760435,41.485997],[-81.762182,41.486291]],[[-81.755722,41.485133],[-81.7575,41.485438]],[[-83.664568,41.616639],[-83.664549,41.617957]],[[-82.542518,41.249268],[-82.571393,41.249605]],[[-81.698643,41.497114],[-81.697179,41.497903]],[[-82.303817,41.258482],[-82.302424,41.258459]]]}},{"type":"Feature","properties":{"state":"PA","relation_id":7724881,"ref":"US 20"},"geometry":{"type":"MultiLineString","coordinates":[[[-80.044559,42.128388],[-79.953156,42.166195],[-79.917361,42.189319],[-79.890503,42.195005],[-79.785525,42.231324],[-79.761927,42.243295]],[[-80.326365,41.996645],[-80.3008,42.01065],[-80.262857,42.024926],[-80.250765,42.035741],[-80.224544,42.048031],[-80.211772,42.058979],[-80.139578,42.087395]],[[-80.519346,41.943914],[-80.492047,41.949656]],[[-80.118066,42.095516],[-80.044244,42.122763],[-80.044693,42.127988]],[[-80.136236,42.088633],[-80.128317,42.091665]],[[-80.355835,41.990194],[-80.394005,41.971709],[-80.445215,41.956894],[-80.39341,41.971796],[-80.354359,41.990719],[-80.337979,41.993695],[-80.355835,41.990194]],[[-80.490098,41.94909],[-80.474833,41.945708],[-80.460415,41.954115],[-80.445215,41.956894]],[[-79.778034,42.234382],[-79.781291,42.233008]],[[-80.337979,41.993695],[-80.335213,41.9939]],[[-80.316837,42.000976],[-80.317587,42.000545]],[[-80.042903,42.124513],[-80.043451,42.123369]]]}},{"type":"Feature","properties":{"state":"NY","relation_id":67761,"ref":"US 20"},"geometry":{"type":"MultiLineString","coordinates":[[[-73.754332,42.646884],[-73.745274,42.642059],[-73.748348,42.639303],[-73.744348,42.642795],[-73.758027,42.646857],[-73.792105,42.666429]],[[-74.458967,42.756866],[-74.524398,42.758996],[-74.304357,42.756966],[-74.213002,42.763455],[-74.171297,42.769571],[-74.155533,42.768602],[-74.137298,42.761794],[-74.100418,42.760501],[-74.06132,42.753826],[-74.014772,42.739678],[-73.988633,42.735894],[-73.938133,42.717535],[-73.921953,42.707406],[-73.901152,42.699724],[-73.793074,42.666908]],[[-73.748348,42.639303],[-73.739955,42.624628],[-73.724728,42.608761],[-73.693124,42.58305],[-73.6783,42.556702],[-73.654709,42.529484],[-73.636394,42.520845],[-73.609873,42.516161],[-73.602886,42.512141],[-73.59069,42.517307],[-73.572757,42.516593],[-73.550214,42.494692],[-73.529627,42.49738],[-73.496383,42.494012],[-73.475489,42.485266],[-73.450702,42.488708],[-73.441257,42.483871],[-73.42721,42.469853],[-73.403028,42.464708],[-73.396299,42.464233],[-73.382224,42.471558],[-73.377183,42.467348],[-73.379591,42.458259],[-73.375334,42.448043]],[[-78.813623,42.769049],[-78.876805,42.737546],[-78.934674,42.697841],[-78.947179,42.681546],[-79.028304,42.611719],[-79.069393,42.582243],[-79.135876,42.55666],[-79.16062,42.543133],[-79.166663,42.544255],[-79.174221,42.526954],[-79.190467,42.511328],[-79.203375,42.503565],[-79.251886,42.481457],[-79.289196,42.457918],[-79.324859,42.443744],[-79.345666,42.4298],[-79.385385,42.417015],[-79.432523,42.391502],[-79.475677,42.376521],[-79.568417,42.328554],[-79.593777,42.312212],[-79.652151,42.294552],[-79.761927,42.243295]],[[-76.609364,42.928064],[-76.558967,42.933262],[-76.559603,42.935619],[-76.578364,42.930817],[-76.634833,42.925953],[-76.646525,42.928227],[-76.655413,42.933945],[-76.705405,42.93992],[-76.716206,42.953386],[-76.731551,42.962413],[-76.739539,42.962881],[-76.769968,42.947962],[-76.770886,42.940893],[-76.792373,42.918428],[-76.795957,42.910906]],[[-76.536545,42.935033],[-76.42906,42.945826],[-76.393488,42.945303],[-76.352595,42.93234],[-76.291382,42.932891],[-76.218379,42.909705],[-76.193653,42.909563],[-76.146405,42.891853],[-76.098948,42.891834],[-76.087455,42.87687],[-76.071165,42.892085],[-76.017256,42.896772],[-76.005706,42.905937],[-75.967688,42.922391],[-75.93121,42.923722],[-75.91284,42.911915],[-75.883887,42.923547],[-75.867312,42.924573],[-75.859281,42.929894],[-75.849431,42.929707],[-75.829379,42.921092],[-75.78431,42.91792],[-75.837613,42.92415]],[[-75.652888,42.899445],[-75.702363,42.913047],[-75.756634,42.913352],[-75.768906,42.91632],[-75.725362,42.912021],[-75.702565,42.913222],[-75.652888,42.899445],[-75.630918,42.898009],[-75.619957,42.900312],[-75.606623,42.895338],[-75.602909,42.890479],[-75.576179,42.8852],[-75.4884,42.90581],[-75.467997,42.908057],[-75.421563,42.921896],[-75.38467,42.913695],[-75.347803,42.911475],[-75.329125,42.914873],[-75.318001,42.909906],[-75.293734,42.888923],[-75.268114,42.87885],[-75.225732,42.875973],[-75.200743,42.884429],[-75.161693,42.88904],[-75.114333,42.887868],[-75.003585,42.861912],[-74.993212,42.854582],[-74.962014,42.849416],[-74.923927,42.847597],[-74.877058,42.838331],[-74.807041,42.830137],[-74.754439,42.831825],[-74.738401,42.821492],[-74.722987,42.822138],[-74.704234,42.810354],[-74.670305,42.805751],[-74.640842,42.795599]],[[-77.562183,42.909974],[-77.601337,42.909132],[-77.619539,42.903118],[-77.649415,42.901421],[-77.690416,42.904714]],[[-77.744337,42.91178],[-77.698532,42.906904]],[[-77.746364,42.912235],[-77.764052,42.920628],[-77.779214,42.917219],[-77.833703,42.918674],[-77.88082,42.913911],[-77.982464,42.91209],[-78.234667,42.899362],[-78.255653,42.905447],[-78.267103,42.902557],[-78.494963,42.900184],[-78.523279,42.891952],[-78.565787,42.890313],[-78.648124,42.894967],[-78.669799,42.900354],[-78.696908,42.901896],[-78.697493,42.812837],[-78.725692,42.810714],[-78.753199,42.79552],[-78.76798,42.782368],[-78.781125,42.781642],[-78.809684,42.770738]],[[-76.985184,42.860798],[-76.980826,42.862469],[-76.977345,42.870806],[-76.981932,42.861543],[-77.006954,42.856519],[-77.047195,42.861646],[-77.104072,42.857705],[-77.120722,42.861018],[-77.200582,42.861758],[-77.228464,42.866959],[-77.254932,42.877514],[-77.276376,42.87826],[-77.295623,42.871318],[-77.300979,42.873715],[-77.307342,42.882659],[-77.34276,42.879459],[-77.405215,42.883157],[-77.429637,42.893968],[-77.469143,42.902251],[-77.546513,42.905797],[-77.55578,42.908688]],[[-75.483789,42.906609],[-75.467638,42.908017],[-75.421216,42.921828],[-75.378093,42.913893]],[[-76.977345,42.870806],[-76.961629,42.876287],[-76.946547,42.875464],[-76.918279,42.893296],[-76.877501,42.903477],[-76.86268,42.904637],[-76.8488,42.901533],[-76.8303,42.903449],[-76.813759,42.910862],[-76.796508,42.910317]],[[-76.942037,42.880322],[-76.947323,42.875359],[-76.963588,42.875796]],[[-75.630918,42.898009],[-75.620562,42.900136],[-75.614787,42.89772]],[[-75.784172,42.917965],[-75.768906,42.91632]],[[-76.558967,42.933262],[-76.547012,42.933731]],[[-74.649888,42.798113],[-74.672358,42.806321],[-74.703688,42.810312],[-74.722882,42.822252],[-74.738687,42.821707],[-74.75445,42.831965],[-74.811738,42.830732]],[[-77.310203,42.882172],[-77.306748,42.881716]],[[-74.615691,42.787713],[-74.536863,42.762416],[-74.62573,42.790365]],[[-78.696908,42.832242],[-78.696903,42.837041]],[[-78.494963,42.900184],[-78.497106,42.900014]],[[-74.524398,42.758996],[-74.536863,42.762416]],[[-73.67123,42.548527],[-73.670417,42.547727]],[[-74.338492,42.757106],[-74.435446,42.756842]],[[-79.10059,42.570216],[-79.102332,42.569408]],[[-77.277937,42.877913],[-77.253934,42.877202],[-77.237934,42.871192]],[[-79.306456,42.451082],[-79.30937,42.449922]],[[-78.751674,42.796381],[-78.749203,42.797711]]]}},{"type":"Feature","properties":{"state":"MA","relation_id":408090,"ref":"US 20"},"geometry":{"type":"MultiLineString","coordinates":[[[-71.096744,42.348986],[-71.140548,42.353985],[-71.181664,42.364748]],[[-71.138085,42.353676],[-71.097163,42.348785]],[[-73.275232,42.383795],[-73.277343,42.368964],[-73.267885,42.353366],[-73.269231,42.341237],[-73.267976,42.353073],[-73.277115,42.367254],[-73.276603,42.380763],[-73.261796,42.41253],[-73.254838,42.445312],[-73.299372,42.439428],[-73.316903,42.431518],[-73.339855,42.431402],[-73.353648,42.426351],[-73.376154,42.437811],[-73.375334,42.448043]],[[-72.748942,42.121481],[-72.748075,42.124199],[-72.763426,42.128532],[-72.779501,42.128061],[-72.80769,42.141736],[-72.814194,42.149033],[-72.815862,42.158423],[-72.831544,42.163642],[-72.833988,42.176557],[-72.857457,42.18747],[-72.859852,42.190768],[-72.858961,42.201006],[-72.854818,42.207004],[-72.86007,42.220996],[-72.869773,42.223936],[-72.880848,42.235279],[-72.895313,42.235279],[-72.910217,42.239432],[-72.929439,42.24894],[-72.935551,42.256985],[-72.955353,42.258428],[-72.962961,42.263134],[-72.970205,42.273958],[-72.982008,42.279228],[-72.987822,42.280121],[-72.995012,42.273402],[-73.011115,42.268141],[-73.021444,42.270352],[-73.043988,42.26407],[-73.056898,42.266192],[-73.075197,42.263846],[-73.079435,42.25834],[-73.103691,42.259341],[-73.112162,42.253217],[-73.13503,42.264572],[-73.141157,42.270895],[-73.144264,42.283355],[-73.162502,42.29359],[-73.216872,42.299793],[-73.228646,42.294438],[-73.232775,42.297569],[-73.239004,42.296915],[-73.248105,42.304246]],[[-72.231427,42.114878],[-72.248496,42.120355],[-72.255208,42.130163],[-72.266353,42.138083],[-72.255729,42.131479],[-72.248537,42.120555],[-72.229068,42.113964],[-72.215895,42.120391],[-72.200209,42.122379],[-72.197494,42.116976],[-72.191094,42.117283],[-72.172466,42.109107],[-72.157376,42.113884],[-72.141007,42.110699],[-72.113674,42.116237],[-72.094313,42.110934],[-72.067514,42.116717],[-72.097612,42.112264]],[[-72.483649,42.145698],[-72.463103,42.151586],[-72.438305,42.14845],[-72.419444,42.154586],[-72.380312,42.152127],[-72.343477,42.163176],[-72.329976,42.157415],[-72.32871,42.159595],[-72.321647,42.153409],[-72.302816,42.146016],[-72.266353,42.138083]],[[-73.269231,42.341237],[-73.255193,42.311079],[-73.248755,42.304382]],[[-73.239004,42.296915],[-73.235955,42.296749]],[[-72.046111,42.129002],[-72.053076,42.126767],[-72.039326,42.134719],[-72.00682,42.144122],[-71.980243,42.147114],[-71.954973,42.144733],[-71.90578,42.155296],[-71.894822,42.166998],[-71.884996,42.168713],[-71.867932,42.180402],[-71.885108,42.168782],[-71.894862,42.167122],[-71.905699,42.155428],[-71.935531,42.147141],[-71.961438,42.144259],[-71.986935,42.145782]],[[-71.551522,42.345509],[-71.545873,42.345903],[-71.55346,42.34639],[-71.561188,42.339949]],[[-71.574756,42.341092],[-71.596812,42.33616],[-71.574756,42.341092]],[[-71.744224,42.241609],[-71.750243,42.234076],[-71.741069,42.243546],[-71.707458,42.25146],[-71.671909,42.279991],[-71.657836,42.299298],[-71.657545,42.307277],[-71.649584,42.318699],[-71.636634,42.320295],[-71.606938,42.334617],[-71.596812,42.33616]],[[-71.531976,42.352048],[-71.540847,42.351072],[-71.54313,42.347404]],[[-71.529862,42.351811],[-71.510779,42.347493],[-71.466126,42.355778],[-71.454444,42.360766],[-71.35548,42.363946],[-71.33734,42.360056],[-71.322105,42.364494],[-71.275068,42.367516],[-71.269601,42.372413],[-71.266024,42.37211],[-71.272279,42.368669]],[[-71.543378,42.347161],[-71.545873,42.345903]],[[-71.553972,42.346042],[-71.552622,42.345951]],[[-71.842676,42.185205],[-71.857454,42.182073],[-71.829675,42.18858],[-71.806603,42.211892],[-71.788093,42.210789],[-71.779889,42.217753],[-71.786507,42.211119],[-71.795402,42.211652]],[[-71.867755,42.180391],[-71.857454,42.182073]],[[-71.266024,42.37211],[-71.250051,42.375962]],[[-71.236718,42.376231],[-71.221153,42.377803],[-71.212046,42.375386]],[[-71.210461,42.374604],[-71.190682,42.369782],[-71.184324,42.365254]],[[-72.501308,42.140451],[-72.503848,42.14848],[-72.533404,42.151908],[-72.547527,42.14592],[-72.559415,42.13026],[-72.600321,42.107708],[-72.608041,42.111554],[-72.621213,42.105193],[-72.622894,42.107234],[-72.636734,42.10343],[-72.652403,42.106381]],[[-72.546295,42.146527],[-72.550945,42.146656],[-72.550214,42.142459],[-72.559836,42.130212],[-72.599824,42.108139],[-72.60554,42.112702],[-72.612448,42.109761]],[[-72.067514,42.116717],[-72.053194,42.126659]],[[-72.654632,42.105834],[-72.67825,42.104171],[-72.684734,42.107856],[-72.70484,42.108048]],[[-72.623203,42.106974],[-72.620224,42.104978],[-72.615589,42.107931]],[[-73.263531,42.40829],[-73.261796,42.41253]],[[-72.747563,42.120826],[-72.708454,42.109743]],[[-72.73333,42.11646],[-72.718685,42.112408]],[[-71.750243,42.234076],[-71.779889,42.217753]],[[-72.690312,42.106898],[-72.684608,42.107837]],[[-73.255266,42.443477],[-73.254838,42.445312]],[[-71.571855,42.341163],[-71.563047,42.340221]],[[-72.704177,42.107814],[-72.702555,42.107531]],[[-72.648664,42.106946],[-72.645393,42.106768]],[[-71.248726,42.376279],[-71.242771,42.376277]],[[-71.156363,42.358235],[-71.161558,42.358991]],[[-71.242102,42.376267],[-71.238253,42.376173]],[[-71.221153,42.377803],[-71.226325,42.377643]],[[-71.668935,42.284829],[-71.669627,42.283514]],[[-71.154619,42.358145],[-71.15298,42.357163]]]}}]}